{"type": "FeatureCollection", "features": [ {"type": "Feature", "properties": {"norad_id": 31880, "name": "FENGYUN 1C DEB", "group": "fengyun-1c-debris", "lat": 48.702708438981674, "lon": 144.25540068988497, "alt_km": 919.4591883003222, "timestamp": "2025-12-18T14:52:08.310325+00:00", "meta": {"OBJECT_NAME": "FENGYUN 1C DEB", "OBJECT_ID": "1999-025CKF", "EPOCH": "2025-12-11T16:42:46.632384", "MEAN_MOTION": 13.89397693, "ECCENTRICITY": 0.01281078, "INCLINATION": 100.0286, "RA_OF_ASC_NODE": 148.4273, "ARG_OF_PERICENTER": 154.5547, "MEAN_ANOMALY": 206.199, "EPHEMERIS_TYPE": 0, "CLASSIFICATION_TYPE": "U", "NORAD_CAT_ID": 31880, "ELEMENT_SET_NO": 999, "REV_AT_EPOCH": 62965, "BSTAR": 0.00070027147, "MEAN_MOTION_DOT": 8.62e-06, "MEAN_MOTION_DDOT": 0}, "tle": {"line1": "1 31880U 99025CKF 25345.69637306  .00000862  00000+0  70027-3 0  9998", "line2": "2 31880 100.0286 148.4273 0128107 154.5547 206.1990 13.89397693629651"}}, "geometry": {"type": "Point", "coordinates": [144.25540068988497, 48.702708438981674]}}, {"type": "Feature", "properties": {"norad_id": 31882, "name": "FENGYUN 1C DEB", "group": "fengyun-1c-debris", "lat": 52.87736689493698, "lon": 107.09768805407255, "alt_km": 840.3797006371797, "timestamp": "2025-12-18T14:52:08.310335+00:00", "meta": {"OBJECT_NAME": "FENGYUN 1C DEB", "OBJECT_ID": "1999-025CKH", "EPOCH": "2025-12-18T00:40:31.724544", "MEAN_MOTION": 14.12983565, "ECCENTRICITY": 0.0035355, "INCLINATION": 98.9173, "RA_OF_ASC_NODE": 274.5372, "ARG_OF_PERICENTER": 209.4535, "MEAN_ANOMALY": 150.4646, "EPHEMERIS_TYPE": 0, "CLASSIFICATION_TYPE": "U", "NORAD_CAT_ID": 31882, "ELEMENT_SET_NO": 999, "REV_AT_EPOCH": 58711, "BSTAR": 0.0005205777, "MEAN_MOTION_DOT": 9.32e-06, "MEAN_MOTION_DDOT": 0}, "tle": {"line1": "1 31882U 99025CKH 25352.02814496  .00000932  00000+0  52058-3 0  9994", "line2": "2 31882  98.9173 274.5372 0035355 209.4535 150.4646 14.12983565587112"}}, "geometry": {"type": "Point", "coordinates": [107.09768805407255, 52.87736689493698]}}, {"type": "Feature", "properties": {"norad_id": 31883, "name": "FENGYUN 1C DEB", "group": "fengyun-1c-debris", "lat": -79.62230743111385, "lon": 29.585541502602414, "alt_km": 748.3749751859596, "timestamp": "2025-12-18T14:52:08.310345+00:00", "meta": {"OBJECT_NAME": "FENGYUN 1C DEB", "OBJECT_ID": "1999-025CKJ", "EPOCH": "2025-12-18T05:29:12.720480", "MEAN_MOTION": 14.67771489, "ECCENTRICITY": 0.0124854, "INCLINATION": 99.0292, "RA_OF_ASC_NODE": 269.416, "ARG_OF_PERICENTER": 52.3852, "MEAN_ANOMALY": 308.8606, "EPHEMERIS_TYPE": 0, "CLASSIFICATION_TYPE": "U", "NORAD_CAT_ID": 31883, "ELEMENT_SET_NO": 999, "REV_AT_EPOCH": 98059, "BSTAR": 0.00058279736, "MEAN_MOTION_DOT": 3.674e-05, "MEAN_MOTION_DDOT": 0}, "tle": {"line1": "1 31883U 99025CKJ 25352.22861945  .00003674  00000+0  58280-3 0  9997", "line2": "2 31883  99.0292 269.4160 0124854  52.3852 308.8606 14.67771489980599"}}, "geometry": {"type": "Point", "coordinates": [29.585541502602414, -79.62230743111385]}}, {"type": "Feature", "properties": {"norad_id": 31887, "name": "FENGYUN 1C DEB", "group": "fengyun-1c-debris", "lat": -16.276320663717986, "lon": -137.74170826877625, "alt_km": 719.6871647754388, "timestamp": "2025-12-18T14:52:08.310355+00:00", "meta": {"OBJECT_NAME": "FENGYUN 1C DEB", "OBJECT_ID": "1999-025CKN", "EPOCH": "2025-12-17T21:29:51.977472", "MEAN_MOTION": 14.57822744, "ECCENTRICITY": 0.00239553, "INCLINATION": 99.5345, "RA_OF_ASC_NODE": 44.2427, "ARG_OF_PERICENTER": 348.6821, "MEAN_ANOMALY": 11.3832, "EPHEMERIS_TYPE": 0, "CLASSIFICATION_TYPE": "U", "NORAD_CAT_ID": 31887, "ELEMENT_SET_NO": 999, "REV_AT_EPOCH": 96683, "BSTAR": 0.00059528528, "MEAN_MOTION_DOT": 2.676e-05, "MEAN_MOTION_DDOT": 0}, "tle": {"line1": "1 31887U 99025CKN 25351.89574048  .00002676  00000+0  59529-3 0  9996", "line2": "2 31887  99.5345  44.2427 0023955 348.6821  11.3832 14.57822744966837"}}, "geometry": {"type": "Point", "coordinates": [-137.74170826877625, -16.276320663717986]}}, {"type": "Feature", "properties": {"norad_id": 31888, "name": "FENGYUN 1C DEB", "group": "fengyun-1c-debris", "lat": 79.18342216992681, "lon": -138.18617693616648, "alt_km": 775.9296072223597, "timestamp": "2025-12-18T14:52:08.310366+00:00", "meta": {"OBJECT_NAME": "FENGYUN 1C DEB", "OBJECT_ID": "1999-025CKP", "EPOCH": "2025-12-18T01:04:47.260416", "MEAN_MOTION": 14.33986779, "ECCENTRICITY": 0.00172134, "INCLINATION": 99.153, "RA_OF_ASC_NODE": 278.7556, "ARG_OF_PERICENTER": 199.4389, "MEAN_ANOMALY": 160.6139, "EPHEMERIS_TYPE": 0, "CLASSIFICATION_TYPE": "U", "NORAD_CAT_ID": 31888, "ELEMENT_SET_NO": 999, "REV_AT_EPOCH": 95713, "BSTAR": 0.0014420266, "MEAN_MOTION_DOT": 3.984e-05, "MEAN_MOTION_DDOT": 0}, "tle": {"line1": "1 31888U 99025CKP 25352.04499144  .00003984  00000+0  14420-2 0  9991", "line2": "2 31888  99.1530 278.7556 0017213 199.4389 160.6139 14.33986779957132"}}, "geometry": {"type": "Point", "coordinates": [-138.18617693616648, 79.18342216992681]}}, {"type": "Feature", "properties": {"norad_id": 31890, "name": "FENGYUN 1C DEB", "group": "fengyun-1c-debris", "lat": -17.094577183250156, "lon": 6.664320482828023, "alt_km": 887.3748813781722, "timestamp": "2025-12-18T14:52:08.310376+00:00", "meta": {"OBJECT_NAME": "FENGYUN 1C DEB", "OBJECT_ID": "1999-025CKR", "EPOCH": "2025-12-18T06:26:12.801408", "MEAN_MOTION": 14.10135343, "ECCENTRICITY": 0.00717599, "INCLINATION": 98.7186, "RA_OF_ASC_NODE": 3.6189, "ARG_OF_PERICENTER": 226.3843, "MEAN_ANOMALY": 133.1361, "EPHEMERIS_TYPE": 0, "CLASSIFICATION_TYPE": "U", "NORAD_CAT_ID": 31890, "ELEMENT_SET_NO": 999, "REV_AT_EPOCH": 64230, "BSTAR": 0.00011349556, "MEAN_MOTION_DOT": 1.63e-06, "MEAN_MOTION_DDOT": 0}, "tle": {"line1": "1 31890U 99025CKR 25352.26820372  .00000163  00000+0  11350-3 0  9995", "line2": "2 31890  98.7186   3.6189 0071759 226.3843 133.1361 14.10135343642304"}}, "geometry": {"type": "Point", "coordinates": [6.664320482828023, -17.094577183250156]}}, {"type": "Feature", "properties": {"norad_id": 31891, "name": "FENGYUN 1C DEB", "group": "fengyun-1c-debris", "lat": 39.50156573243194, "lon": -0.31395815495132523, "alt_km": 1109.9772692910628, "timestamp": "2025-12-18T14:52:08.310386+00:00", "meta": {"OBJECT_NAME": "FENGYUN 1C DEB", "OBJECT_ID": "1999-025CKS", "EPOCH": "2025-12-17T12:18:03.569184", "MEAN_MOTION": 13.66208415, "ECCENTRICITY": 0.02250778, "INCLINATION": 99.402, "RA_OF_ASC_NODE": 6.4614, "ARG_OF_PERICENTER": 171.0093, "MEAN_ANOMALY": 189.5187, "EPHEMERIS_TYPE": 0, "CLASSIFICATION_TYPE": "U", "NORAD_CAT_ID": 31891, "ELEMENT_SET_NO": 999, "REV_AT_EPOCH": 92475, "BSTAR": 0.00046704969, "MEAN_MOTION_DOT": 4.16e-06, "MEAN_MOTION_DDOT": 0}, "tle": {"line1": "1 31891U 99025CKS 25351.51254131  .00000416  00000+0  46705-3 0  9990", "line2": "2 31891  99.4020   6.4614 0225077 171.0093 189.5187 13.66208415924755"}}, "geometry": {"type": "Point", "coordinates": [-0.31395815495132523, 39.50156573243194]}}, {"type": "Feature", "properties": {"norad_id": 31892, "name": "FENGYUN 1C DEB", "group": "fengyun-1c-debris", "lat": 49.44754793026078, "lon": -6.08231762533775, "alt_km": 857.0237355710569, "timestamp": "2025-12-18T14:52:08.310396+00:00", "meta": {"OBJECT_NAME": "FENGYUN 1C DEB", "OBJECT_ID": "1999-025CKT", "EPOCH": "2025-12-06T17:19:53.766912", "MEAN_MOTION": 14.41156255, "ECCENTRICITY": 0.01986119, "INCLINATION": 99.2881, "RA_OF_ASC_NODE": 149.9643, "ARG_OF_PERICENTER": 304.4066, "MEAN_ANOMALY": 53.8482, "EPHEMERIS_TYPE": 0, "CLASSIFICATION_TYPE": "U", "NORAD_CAT_ID": 31892, "ELEMENT_SET_NO": 999, "REV_AT_EPOCH": 64819, "BSTAR": 0.001005312, "MEAN_MOTION_DOT": 4.04e-05, "MEAN_MOTION_DDOT": 0}, "tle": {"line1": "1 31892U 99025CKT 25340.72215008  .00004040  00000+0  10053-2 0  9995", "line2": "2 31892  99.2881 149.9643 0198611 304.4066  53.8482 14.41156255648199"}}, "geometry": {"type": "Point", "coordinates": [-6.08231762533775, 49.44754793026078]}}, {"type": "Feature", "properties": {"norad_id": 31893, "name": "FENGYUN 1C DEB", "group": "fengyun-1c-debris", "lat": -72.91754198730942, "lon": 100.16660015084553, "alt_km": 613.1234012595842, "timestamp": "2025-12-18T14:52:08.310409+00:00", "meta": {"OBJECT_NAME": "FENGYUN 1C DEB", "OBJECT_ID": "1999-025CKU", "EPOCH": "2025-12-18T03:54:35.964864", "MEAN_MOTION": 14.6378796, "ECCENTRICITY": 0.01745885, "INCLINATION": 99.0701, "RA_OF_ASC_NODE": 310.9847, "ARG_OF_PERICENTER": 310.0855, "MEAN_ANOMALY": 62.09, "EPHEMERIS_TYPE": 0, "CLASSIFICATION_TYPE": "U", "NORAD_CAT_ID": 31893, "ELEMENT_SET_NO": 999, "REV_AT_EPOCH": 98484, "BSTAR": 0.00033216944, "MEAN_MOTION_DOT": 2.091e-05, "MEAN_MOTION_DDOT": 0}, "tle": {"line1": "1 31893U 99025CKU 25352.16291626  .00002091  00000+0  33217-3 0  9999", "line2": "2 31893  99.0701 310.9847 0174588 310.0855  62.0900 14.63787960984840"}}, "geometry": {"type": "Point", "coordinates": [100.16660015084553, -72.91754198730942]}}, {"type": "Feature", "properties": {"norad_id": 31895, "name": "FENGYUN 1C DEB", "group": "fengyun-1c-debris", "lat": 61.322614924347874, "lon": 4.2254358521942805, "alt_km": 1119.4124654347443, "timestamp": "2025-12-18T14:52:08.310420+00:00", "meta": {"OBJECT_NAME": "FENGYUN 1C DEB", "OBJECT_ID": "1999-025CKW", "EPOCH": "2025-12-17T19:20:56.695200", "MEAN_MOTION": 13.75550882, "ECCENTRICITY": 0.02271287, "INCLINATION": 99.0945, "RA_OF_ASC_NODE": 20.4768, "ARG_OF_PERICENTER": 216.2014, "MEAN_ANOMALY": 142.3581, "EPHEMERIS_TYPE": 0, "CLASSIFICATION_TYPE": "U", "NORAD_CAT_ID": 31895, "ELEMENT_SET_NO": 999, "REV_AT_EPOCH": 61966, "BSTAR": 0.0018353051, "MEAN_MOTION_DOT": 2.092e-05, "MEAN_MOTION_DDOT": 0}, "tle": {"line1": "1 31895U 99025CKW 25351.80621175  .00002092  00000+0  18353-2 0  9991", "line2": "2 31895  99.0945  20.4768 0227128 216.2014 142.3581 13.75550882619665"}}, "geometry": {"type": "Point", "coordinates": [4.2254358521942805, 61.322614924347874]}}]}